{"type": "FeatureCollection", "features": [ {"type": "Feature", "properties": {"norad_id": 31715, "name": "FENGYUN 1C DEB", "group": "fengyun-1c-debris", "lat": 64.77438801073072, "lon": 24.70375196778193, "alt_km": 585.3627376182949, "timestamp": "2025-12-20T16:47:36.570374+00:00", "meta": {"OBJECT_NAME": "FENGYUN 1C DEB", "OBJECT_ID": "1999-025CDN", "EPOCH": "2025-12-18T06:24:34.673472", "MEAN_MOTION": 14.5220919, "ECCENTRICITY": 0.01870722, "INCLINATION": 99.2921, "RA_OF_ASC_NODE": 181.6763, "ARG_OF_PERICENTER": 103.0013, "MEAN_ANOMALY": 259.2139, "EPHEMERIS_TYPE": 0, "CLASSIFICATION_TYPE": "U", "NORAD_CAT_ID": 31715, "ELEMENT_SET_NO": 999, "REV_AT_EPOCH": 61797, "BSTAR": 0.00065902481, "MEAN_MOTION_DOT": 3.301e-05, "MEAN_MOTION_DDOT": 0}, "tle": {"line1": "1 31715U 99025CDN 25352.26706798  .00003301  00000+0  65902-3 0  9995", "line2": "2 31715  99.2921 181.6763 0187072 103.0013 259.2139 14.52209190617970"}}, "geometry": {"type": "Point", "coordinates": [24.70375196778193, 64.77438801073072]}}, {"type": "Feature", "properties": {"norad_id": 31716, "name": "FENGYUN 1C DEB", "group": "fengyun-1c-debris", "lat": 71.77751316005227, "lon": 100.41983368864287, "alt_km": 797.9865612721942, "timestamp": "2025-12-20T16:47:36.570384+00:00", "meta": {"OBJECT_NAME": "FENGYUN 1C DEB", "OBJECT_ID": "1999-025CDP", "EPOCH": "2025-12-20T05:01:58.810944", "MEAN_MOTION": 14.03638057, "ECCENTRICITY": 0.01309965, "INCLINATION": 98.555, "RA_OF_ASC_NODE": 252.7504, "ARG_OF_PERICENTER": 70.3781, "MEAN_ANOMALY": 80.0994, "EPHEMERIS_TYPE": 0, "CLASSIFICATION_TYPE": "U", "NORAD_CAT_ID": 31716, "ELEMENT_SET_NO": 999, "REV_AT_EPOCH": 94224, "BSTAR": 0.0010460257, "MEAN_MOTION_DOT": 1.733e-05, "MEAN_MOTION_DDOT": 0}, "tle": {"line1": "1 31716U 99025CDP 25354.20970846  .00001733  00000+0  10460-2 0  9994", "line2": "2 31716  98.5550 252.7504 0130996  70.3781  80.0994 14.03638057942249"}}, "geometry": {"type": "Point", "coordinates": [100.41983368864287, 71.77751316005227]}}, {"type": "Feature", "properties": {"norad_id": 31720, "name": "FENGYUN 1C DEB", "group": "fengyun-1c-debris", "lat": 45.73341630770051, "lon": -101.90244011163865, "alt_km": 607.6264928713217, "timestamp": "2025-12-20T16:47:36.570393+00:00", "meta": {"OBJECT_NAME": "FENGYUN 1C DEB", "OBJECT_ID": "1999-025CDT", "EPOCH": "2025-12-17T00:28:52.679424", "MEAN_MOTION": 14.71860526, "ECCENTRICITY": 0.01002517, "INCLINATION": 99.048, "RA_OF_ASC_NODE": 263.4173, "ARG_OF_PERICENTER": 110.3863, "MEAN_ANOMALY": 250.8144, "EPHEMERIS_TYPE": 0, "CLASSIFICATION_TYPE": "U", "NORAD_CAT_ID": 31720, "ELEMENT_SET_NO": 999, "REV_AT_EPOCH": 98299, "BSTAR": 0.00056875806, "MEAN_MOTION_DOT": 3.786e-05, "MEAN_MOTION_DDOT": 0}, "tle": {"line1": "1 31720U 99025CDT 25351.02005416  .00003786  00000+0  56876-3 0  9990", "line2": "2 31720  99.0480 263.4173 0100251 110.3863 250.8144 14.71860526982993"}}, "geometry": {"type": "Point", "coordinates": [-101.90244011163865, 45.73341630770051]}}, {"type": "Feature", "properties": {"norad_id": 31721, "name": "FENGYUN 1C DEB", "group": "fengyun-1c-debris", "lat": -26.829262662794545, "lon": 149.51010343808107, "alt_km": 820.4288343356693, "timestamp": "2025-12-20T16:47:36.570403+00:00", "meta": {"OBJECT_NAME": "FENGYUN 1C DEB", "OBJECT_ID": "1999-025CDU", "EPOCH": "2025-12-18T18:57:12.279744", "MEAN_MOTION": 13.73783105, "ECCENTRICITY": 0.03175553, "INCLINATION": 99.7815, "RA_OF_ASC_NODE": 332.5593, "ARG_OF_PERICENTER": 167.8662, "MEAN_ANOMALY": 315.5677, "EPHEMERIS_TYPE": 0, "CLASSIFICATION_TYPE": "U", "NORAD_CAT_ID": 31721, "ELEMENT_SET_NO": 999, "REV_AT_EPOCH": 67469, "BSTAR": 0.00026542359, "MEAN_MOTION_DOT": 3.11e-06, "MEAN_MOTION_DDOT": 0}, "tle": {"line1": "1 31721U 99025CDU 25352.78972546  .00000311  00000+0  26542-3 0  9990", "line2": "2 31721  99.7815 332.5593 0317555 167.8662 315.5677 13.73783105674691"}}, "geometry": {"type": "Point", "coordinates": [149.51010343808107, -26.829262662794545]}}, {"type": "Feature", "properties": {"norad_id": 31724, "name": "FENGYUN 1C DEB", "group": "fengyun-1c-debris", "lat": 19.419971634484533, "lon": -2.6547466068265564, "alt_km": 830.8615760394005, "timestamp": "2025-12-20T16:47:36.570413+00:00", "meta": {"OBJECT_NAME": "FENGYUN 1C DEB", "OBJECT_ID": "1999-025CDX", "EPOCH": "2025-12-20T06:45:30.830112", "MEAN_MOTION": 14.49238426, "ECCENTRICITY": 0.0151796, "INCLINATION": 97.8539, "RA_OF_ASC_NODE": 359.745, "ARG_OF_PERICENTER": 218.7736, "MEAN_ANOMALY": 140.2489, "EPHEMERIS_TYPE": 0, "CLASSIFICATION_TYPE": "U", "NORAD_CAT_ID": 31724, "ELEMENT_SET_NO": 999, "REV_AT_EPOCH": 64601, "BSTAR": 0.001413, "MEAN_MOTION_DOT": 6.195e-05, "MEAN_MOTION_DDOT": 0}, "tle": {"line1": "1 31724U 99025CDX 25354.28160683  .00006195  00000+0  14130-2 0  9996", "line2": "2 31724  97.8539 359.7450 0151796 218.7736 140.2489 14.49238426646014"}}, "geometry": {"type": "Point", "coordinates": [-2.6547466068265564, 19.419971634484533]}}, {"type": "Feature", "properties": {"norad_id": 31725, "name": "FENGYUN 1C DEB", "group": "fengyun-1c-debris", "lat": 27.276445099282736, "lon": -154.5731057525778, "alt_km": 1133.7160148232779, "timestamp": "2025-12-20T16:47:36.570423+00:00", "meta": {"OBJECT_NAME": "FENGYUN 1C DEB", "OBJECT_ID": "1999-025CDY", "EPOCH": "2025-12-17T21:05:21.230880", "MEAN_MOTION": 12.79203585, "ECCENTRICITY": 0.06944571, "INCLINATION": 99.1801, "RA_OF_ASC_NODE": 207.8945, "ARG_OF_PERICENTER": 323.3807, "MEAN_ANOMALY": 32.1667, "EPHEMERIS_TYPE": 0, "CLASSIFICATION_TYPE": "U", "NORAD_CAT_ID": 31725, "ELEMENT_SET_NO": 999, "REV_AT_EPOCH": 86547, "BSTAR": 0.0022154725, "MEAN_MOTION_DOT": 1.348e-05, "MEAN_MOTION_DDOT": 0}, "tle": {"line1": "1 31725U 99025CDY 25351.87871795  .00001348  00000+0  22155-2 0  9993", "line2": "2 31725  99.1801 207.8945 0694457 323.3807  32.1667 12.79203585865471"}}, "geometry": {"type": "Point", "coordinates": [-154.5731057525778, 27.276445099282736]}}, {"type": "Feature", "properties": {"norad_id": 31727, "name": "FENGYUN 1C DEB", "group": "fengyun-1c-debris", "lat": 41.4586321302894, "lon": 99.06090636298997, "alt_km": 763.2298312325602, "timestamp": "2025-12-20T16:47:36.570433+00:00", "meta": {"OBJECT_NAME": "FENGYUN 1C DEB", "OBJECT_ID": "1999-025CEA", "EPOCH": "2025-12-18T13:04:28.254144", "MEAN_MOTION": 14.37079221, "ECCENTRICITY": 0.00324661, "INCLINATION": 98.8653, "RA_OF_ASC_NODE": 104.7671, "ARG_OF_PERICENTER": 322.0341, "MEAN_ANOMALY": 97.3888, "EPHEMERIS_TYPE": 0, "CLASSIFICATION_TYPE": "U", "NORAD_CAT_ID": 31727, "ELEMENT_SET_NO": 999, "REV_AT_EPOCH": 71752, "BSTAR": 0.0015162779, "MEAN_MOTION_DOT": 4.485e-05, "MEAN_MOTION_DDOT": 0}, "tle": {"line1": "1 31727U 99025CEA 25352.54477146  .00004485  00000+0  15163-2 0  9998", "line2": "2 31727  98.8653 104.7671 0032466 322.0341  97.3888 14.37079221717524"}}, "geometry": {"type": "Point", "coordinates": [99.06090636298997, 41.4586321302894]}}, {"type": "Feature", "properties": {"norad_id": 31731, "name": "FENGYUN 1C DEB", "group": "fengyun-1c-debris", "lat": -49.13821229694659, "lon": 54.524888630620474, "alt_km": 769.0827702951519, "timestamp": "2025-12-20T16:47:36.570444+00:00", "meta": {"OBJECT_NAME": "FENGYUN 1C DEB", "OBJECT_ID": "1999-025CEE", "EPOCH": "2025-11-27T02:07:07.827456", "MEAN_MOTION": 14.40063792, "ECCENTRICITY": 0.00116613, "INCLINATION": 99.3084, "RA_OF_ASC_NODE": 17.9462, "ARG_OF_PERICENTER": 144.9647, "MEAN_ANOMALY": 215.2308, "EPHEMERIS_TYPE": 0, "CLASSIFICATION_TYPE": "U", "NORAD_CAT_ID": 31731, "ELEMENT_SET_NO": 999, "REV_AT_EPOCH": 95605, "BSTAR": 0.0018623031, "MEAN_MOTION_DOT": 5.831e-05, "MEAN_MOTION_DDOT": 0}, "tle": {"line1": "1 31731U 99025CEE 25331.08828504  .00005831  00000+0  18623-2 0  9997", "line2": "2 31731  99.3084  17.9462 0011661 144.9647 215.2308 14.40063792956051"}}, "geometry": {"type": "Point", "coordinates": [54.524888630620474, -49.13821229694659]}}, {"type": "Feature", "properties": {"norad_id": 31732, "name": "FENGYUN 1C DEB", "group": "fengyun-1c-debris", "lat": 29.637853712236723, "lon": -145.97267947502613, "alt_km": 841.3938008541372, "timestamp": "2025-12-20T16:47:36.570454+00:00", "meta": {"OBJECT_NAME": "FENGYUN 1C DEB", "OBJECT_ID": "1999-025CEF", "EPOCH": "2025-12-17T13:15:59.741856", "MEAN_MOTION": 14.1225966, "ECCENTRICITY": 0.00398279, "INCLINATION": 98.5726, "RA_OF_ASC_NODE": 26.0942, "ARG_OF_PERICENTER": 231.4912, "MEAN_ANOMALY": 128.2686, "EPHEMERIS_TYPE": 0, "CLASSIFICATION_TYPE": "U", "NORAD_CAT_ID": 31732, "ELEMENT_SET_NO": 999, "REV_AT_EPOCH": 64398, "BSTAR": 0.00028723871, "MEAN_MOTION_DOT": 4.9e-06, "MEAN_MOTION_DDOT": 0}, "tle": {"line1": "1 31732U 99025CEF 25351.55277479  .00000490  00000+0  28724-3 0  9991", "line2": "2 31732  98.5726  26.0942 0039827 231.4912 128.2686 14.12259660643988"}}, "geometry": {"type": "Point", "coordinates": [-145.97267947502613, 29.637853712236723]}}, {"type": "Feature", "properties": {"norad_id": 31734, "name": "FENGYUN 1C DEB", "group": "fengyun-1c-debris", "lat": 6.213061595438864, "lon": 167.56699600120695, "alt_km": 870.2681177086179, "timestamp": "2025-12-20T16:47:36.570465+00:00", "meta": {"OBJECT_NAME": "FENGYUN 1C DEB", "OBJECT_ID": "1999-025CEH", "EPOCH": "2025-12-17T05:38:30.357312", "MEAN_MOTION": 14.2902964, "ECCENTRICITY": 0.01035042, "INCLINATION": 98.4953, "RA_OF_ASC_NODE": 343.2584, "ARG_OF_PERICENTER": 354.3593, "MEAN_ANOMALY": 5.6416, "EPHEMERIS_TYPE": 0, "CLASSIFICATION_TYPE": "U", "NORAD_CAT_ID": 31734, "ELEMENT_SET_NO": 999, "REV_AT_EPOCH": 96515, "BSTAR": 0.00042036115, "MEAN_MOTION_DOT": 1.084e-05, "MEAN_MOTION_DDOT": 0}, "tle": {"line1": "1 31734U 99025CEH 25351.23507358  .00001084  00000+0  42036-3 0  9992", "line2": "2 31734  98.4953 343.2584 0103504 354.3593   5.6416 14.29029640965157"}}, "geometry": {"type": "Point", "coordinates": [167.56699600120695, 6.213061595438864]}}]}